{"type": "FeatureCollection", "features": [ {"type": "Feature", "properties": {"norad_id": 66596, "name": "STARLINK-35811", "group": "last-30-days", "lat": -3.6439151340036, "lon": 53.58530168658124, "alt_km": 361.8805336167334, "timestamp": "2025-12-06T11:28:09.787387+00:00", "meta": {"OBJECT_NAME": "STARLINK-35811", "OBJECT_ID": "2025-270J", "EPOCH": "2025-12-05T22:00:03.000096", "MEAN_MOTION": 15.71285972, "ECCENTRICITY": 0.00012617, "INCLINATION": 42.9986, "RA_OF_ASC_NODE": 233.0468, "ARG_OF_PERICENTER": 254.6149, "MEAN_ANOMALY": 354.7587, "EPHEMERIS_TYPE": 0, "CLASSIFICATION_TYPE": "U", "NORAD_CAT_ID": 66596, "ELEMENT_SET_NO": 999, "REV_AT_EPOCH": 341, "BSTAR": -0.016753128, "MEAN_MOTION_DOT": -0.01939955, "MEAN_MOTION_DDOT": 0}, "tle": {"line1": "1 66596U 25270J   25339.91670139 -.01939955  00000+0 -16753-1 0  9991", "line2": "2 66596  42.9986 233.0468 0001261 254.6149 354.7587 15.71285972  3413"}}, "geometry": {"type": "Point", "coordinates": [53.58530168658124, -3.6439151340036]}}, {"type": "Feature", "properties": {"norad_id": 66597, "name": "STARLINK-35820", "group": "last-30-days", "lat": -4.943382489554748, "lon": 54.98724311846375, "alt_km": 362.0414256560334, "timestamp": "2025-12-06T11:28:09.787403+00:00", "meta": {"OBJECT_NAME": "STARLINK-35820", "OBJECT_ID": "2025-270K", "EPOCH": "2025-12-05T22:00:03.000096", "MEAN_MOTION": 15.71283901, "ECCENTRICITY": 0.000147, "INCLINATION": 42.9986, "RA_OF_ASC_NODE": 233.0416, "ARG_OF_PERICENTER": 257.4194, "MEAN_ANOMALY": 353.876, "EPHEMERIS_TYPE": 0, "CLASSIFICATION_TYPE": "U", "NORAD_CAT_ID": 66597, "ELEMENT_SET_NO": 999, "REV_AT_EPOCH": 341, "BSTAR": -0.016771695, "MEAN_MOTION_DOT": -0.01941867, "MEAN_MOTION_DDOT": 0}, "tle": {"line1": "1 66597U 25270K   25339.91670139 -.01941867  00000+0 -16772-1 0  9998", "line2": "2 66597  42.9986 233.0416 0001470 257.4194 353.8760 15.71283901  3413"}}, "geometry": {"type": "Point", "coordinates": [54.98724311846375, -4.943382489554748]}}, {"type": "Feature", "properties": {"norad_id": 66598, "name": "STARLINK-35981", "group": "last-30-days", "lat": -6.244388342230658, "lon": 56.399923366326135, "alt_km": 362.10720596789633, "timestamp": "2025-12-06T11:28:09.787420+00:00", "meta": {"OBJECT_NAME": "STARLINK-35981", "OBJECT_ID": "2025-270L", "EPOCH": "2025-12-05T22:00:03.000096", "MEAN_MOTION": 15.71282129, "ECCENTRICITY": 0.00014475, "INCLINATION": 42.9986, "RA_OF_ASC_NODE": 233.0367, "ARG_OF_PERICENTER": 255.9988, "MEAN_ANOMALY": 357.2119, "EPHEMERIS_TYPE": 0, "CLASSIFICATION_TYPE": "U", "NORAD_CAT_ID": 66598, "ELEMENT_SET_NO": 999, "REV_AT_EPOCH": 314, "BSTAR": -0.016724365, "MEAN_MOTION_DOT": -0.01936868, "MEAN_MOTION_DDOT": 0}, "tle": {"line1": "1 66598U 25270L   25339.91670139 -.01936868  00000+0 -16724-1 0  9991", "line2": "2 66598  42.9986 233.0367 0001447 255.9988 357.2119 15.71282129  3144"}}, "geometry": {"type": "Point", "coordinates": [56.399923366326135, -6.244388342230658]}}, {"type": "Feature", "properties": {"norad_id": 66599, "name": "STARLINK-35930", "group": "last-30-days", "lat": -7.539750338873796, "lon": 57.81866254432988, "alt_km": 362.171512793464, "timestamp": "2025-12-06T11:28:09.787440+00:00", "meta": {"OBJECT_NAME": "STARLINK-35930", "OBJECT_ID": "2025-270M", "EPOCH": "2025-12-05T22:00:03.000096", "MEAN_MOTION": 15.71288091, "ECCENTRICITY": 0.00014633, "INCLINATION": 42.9985, "RA_OF_ASC_NODE": 233.0328, "ARG_OF_PERICENTER": 254.0287, "MEAN_ANOMALY": 1.0962, "EPHEMERIS_TYPE": 0, "CLASSIFICATION_TYPE": "U", "NORAD_CAT_ID": 66599, "ELEMENT_SET_NO": 999, "REV_AT_EPOCH": 330, "BSTAR": -0.016791779, "MEAN_MOTION_DOT": -0.01944226, "MEAN_MOTION_DDOT": 0}, "tle": {"line1": "1 66599U 25270M   25339.91670139 -.01944226  00000+0 -16792-1 0  9994", "line2": "2 66599  42.9985 233.0328 0001463 254.0287   1.0962 15.71288091  3303"}}, "geometry": {"type": "Point", "coordinates": [57.81866254432988, -7.539750338873796]}}, {"type": "Feature", "properties": {"norad_id": 66600, "name": "STARLINK-35980", "group": "last-30-days", "lat": -8.832043889590086, "lon": 59.24661613241183, "alt_km": 362.3199558683109, "timestamp": "2025-12-06T11:28:09.787456+00:00", "meta": {"OBJECT_NAME": "STARLINK-35980", "OBJECT_ID": "2025-270N", "EPOCH": "2025-12-05T22:00:03.000096", "MEAN_MOTION": 15.71282808, "ECCENTRICITY": 0.00014196, "INCLINATION": 42.9986, "RA_OF_ASC_NODE": 233.0279, "ARG_OF_PERICENTER": 255.648, "MEAN_ANOMALY": 1.3965, "EPHEMERIS_TYPE": 0, "CLASSIFICATION_TYPE": "U", "NORAD_CAT_ID": 66600, "ELEMENT_SET_NO": 999, "REV_AT_EPOCH": 320, "BSTAR": -0.016726148, "MEAN_MOTION_DOT": -0.01937079, "MEAN_MOTION_DDOT": 0}, "tle": {"line1": "1 66600U 25270N   25339.91670139 -.01937079  00000+0 -16726-1 0  9992", "line2": "2 66600  42.9986 233.0279 0001419 255.6480   1.3965 15.71282808  3200"}}, "geometry": {"type": "Point", "coordinates": [59.24661613241183, -8.832043889590086]}}, {"type": "Feature", "properties": {"norad_id": 66601, "name": "STARLINK-35978", "group": "last-30-days", "lat": -10.115512768020448, "lon": 60.68091233206104, "alt_km": 362.43361559859113, "timestamp": "2025-12-06T11:28:09.787476+00:00", "meta": {"OBJECT_NAME": "STARLINK-35978", "OBJECT_ID": "2025-270P", "EPOCH": "2025-12-05T22:00:03.000096", "MEAN_MOTION": 15.712841, "ECCENTRICITY": 0.00015255, "INCLINATION": 42.9985, "RA_OF_ASC_NODE": 233.023, "ARG_OF_PERICENTER": 256.8603, "MEAN_ANOMALY": 2.1026, "EPHEMERIS_TYPE": 0, "CLASSIFICATION_TYPE": "U", "NORAD_CAT_ID": 66601, "ELEMENT_SET_NO": 999, "REV_AT_EPOCH": 314, "BSTAR": -0.01676588, "MEAN_MOTION_DOT": -0.01941329, "MEAN_MOTION_DDOT": 0}, "tle": {"line1": "1 66601U 25270P   25339.91670139 -.01941329  00000+0 -16766-1 0  9990", "line2": "2 66601  42.9985 233.0230 0001525 256.8603   2.1026 15.71284100  3142"}}, "geometry": {"type": "Point", "coordinates": [60.68091233206104, -10.115512768020448]}}, {"type": "Feature", "properties": {"norad_id": 66602, "name": "STARLINK-36050", "group": "last-30-days", "lat": -11.393788341484171, "lon": 62.12787090249248, "alt_km": 362.45504686366166, "timestamp": "2025-12-06T11:28:09.787491+00:00", "meta": {"OBJECT_NAME": "STARLINK-36050", "OBJECT_ID": "2025-270Q", "EPOCH": "2025-12-05T22:00:03.000096", "MEAN_MOTION": 15.7127423, "ECCENTRICITY": 0.0001711, "INCLINATION": 42.9985, "RA_OF_ASC_NODE": 233.018, "ARG_OF_PERICENTER": 256.6158, "MEAN_ANOMALY": 4.2705, "EPHEMERIS_TYPE": 0, "CLASSIFICATION_TYPE": "U", "NORAD_CAT_ID": 66602, "ELEMENT_SET_NO": 999, "REV_AT_EPOCH": 320, "BSTAR": -0.016671179, "MEAN_MOTION_DOT": -0.01931044, "MEAN_MOTION_DDOT": 0}, "tle": {"line1": "1 66602U 25270Q   25339.91670139 -.01931044  00000+0 -16671-1 0  9999", "line2": "2 66602  42.9985 233.0180 0001711 256.6158   4.2705 15.71274230  3204"}}, "geometry": {"type": "Point", "coordinates": [62.12787090249248, -11.393788341484171]}}, {"type": "Feature", "properties": {"norad_id": 66603, "name": "STARLINK-36048", "group": "last-30-days", "lat": -12.665422477250608, "lon": 63.588222231977035, "alt_km": 362.7954194713584, "timestamp": "2025-12-06T11:28:09.787508+00:00", "meta": {"OBJECT_NAME": "STARLINK-36048", "OBJECT_ID": "2025-270R", "EPOCH": "2025-12-05T22:00:03.000096", "MEAN_MOTION": 15.71286326, "ECCENTRICITY": 0.00014935, "INCLINATION": 42.9985, "RA_OF_ASC_NODE": 233.0127, "ARG_OF_PERICENTER": 262.8845, "MEAN_ANOMALY": 359.9119, "EPHEMERIS_TYPE": 0, "CLASSIFICATION_TYPE": "U", "NORAD_CAT_ID": 66603, "ELEMENT_SET_NO": 999, "REV_AT_EPOCH": 320, "BSTAR": -0.016800352, "MEAN_MOTION_DOT": -0.01944999, "MEAN_MOTION_DDOT": 0}, "tle": {"line1": "1 66603U 25270R   25339.91670139 -.01944999  00000+0 -16800-1 0  9997", "line2": "2 66603  42.9985 233.0127 0001493 262.8845 359.9119 15.71286326  3203"}}, "geometry": {"type": "Point", "coordinates": [63.588222231977035, -12.665422477250608]}}, {"type": "Feature", "properties": {"norad_id": 66604, "name": "STARLINK-35977", "group": "last-30-days", "lat": -13.929461151540098, "lon": 65.06433375309697, "alt_km": 362.8103922916189, "timestamp": "2025-12-06T11:28:09.787529+00:00", "meta": {"OBJECT_NAME": "STARLINK-35977", "OBJECT_ID": "2025-270S", "EPOCH": "2025-12-05T22:00:03.000096", "MEAN_MOTION": 15.71283884, "ECCENTRICITY": 0.00015085, "INCLINATION": 42.9985, "RA_OF_ASC_NODE": 233.0079, "ARG_OF_PERICENTER": 260.2791, "MEAN_ANOMALY": 4.437, "EPHEMERIS_TYPE": 0, "CLASSIFICATION_TYPE": "U", "NORAD_CAT_ID": 66604, "ELEMENT_SET_NO": 999, "REV_AT_EPOCH": 330, "BSTAR": -0.016785149, "MEAN_MOTION_DOT": -0.01943274, "MEAN_MOTION_DDOT": 0}, "tle": {"line1": "1 66604U 25270S   25339.91670139 -.01943274  00000+0 -16785-1 0  9995", "line2": "2 66604  42.9985 233.0079 0001508 260.2791   4.4370 15.71283884  3307"}}, "geometry": {"type": "Point", "coordinates": [65.06433375309697, -13.929461151540098]}}, {"type": "Feature", "properties": {"norad_id": 66605, "name": "STARLINK-36052", "group": "last-30-days", "lat": -15.185820613619095, "lon": 66.55900461556791, "alt_km": 362.8017759388895, "timestamp": "2025-12-06T11:28:09.787545+00:00", "meta": {"OBJECT_NAME": "STARLINK-36052", "OBJECT_ID": "2025-270T", "EPOCH": "2025-12-05T22:00:03.000096", "MEAN_MOTION": 15.71283461, "ECCENTRICITY": 0.00015105, "INCLINATION": 42.9985, "RA_OF_ASC_NODE": 233.0038, "ARG_OF_PERICENTER": 257.1313, "MEAN_ANOMALY": 9.499, "EPHEMERIS_TYPE": 0, "CLASSIFICATION_TYPE": "U", "NORAD_CAT_ID": 66605, "ELEMENT_SET_NO": 999, "REV_AT_EPOCH": 330, "BSTAR": -0.016745937, "MEAN_MOTION_DOT": -0.01939226, "MEAN_MOTION_DDOT": 0}, "tle": {"line1": "1 66605U 25270T   25339.91670139 -.01939226  00000+0 -16746-1 0  9995", "line2": "2 66605  42.9985 233.0038 0001510 257.1313   9.4990 15.71283461  3305"}}, "geometry": {"type": "Point", "coordinates": [66.55900461556791, -15.185820613619095]}}]}